OBJECT_NAME,OBJECT_ID,EPOCH,MEAN_MOTION,ECCENTRICITY,INCLINATION,RA_OF_ASC_NODE,ARG_OF_PERICENTER,MEAN_ANOMALY,EPHEMERIS_TYPE,CLASSIFICATION_TYPE,NORAD_CAT_ID,ELEMENT_SET_NO,REV_AT_EPOCH,BSTAR,MEAN_MOTION_DOT,MEAN_MOTION_DDOT
SKYSAT-C4,2016-058B,2026-06-08T19:14:43.783296,15.48326972,.0000856,96.9184,181.9262,101.0393,259.0956,0,U,41771,999,54417,.33333E-3,.17547E-3,0
SKYSAT-C5,2016-058C,2026-06-08T08:45:55.073664,15.34343128,.0002041,97.0478,200.3996,4.8894,355.2369,0,U,41772,999,54239,.20672E-3,.68E-4,0
SKYSAT-C2,2016-058D,2026-06-08T11:57:59.910912,15.41872579,.0005114,97.0173,181.9219,89.0925,271.0908,0,U,41773,999,54371,.28188E-3,.11893E-3,0
SKYSAT-C3,2016-058E,2026-06-08T19:52:13.429344,15.52180465,.0001912,96.9014,190.9992,82.8153,277.3319,0,U,41774,999,54481,.3698E-3,.22331E-3,0
ALSAT-1B,2016-059C,2026-06-08T21:08:09.932928,14.72269634,.000773,97.7756,169.0030,252.0053,108.0313,0,U,41785,999,51935,.11166E-3,.658E-5,0
PATHFINDER 1,2016-059E,2026-06-08T18:01:04.952064,14.67654005,.0027234,97.8166,159.4077,231.3658,128.5109,0,U,41787,999,51847,.11823E-3,.629E-5,0
SCATSAT 1,2016-059H,2026-06-08T18:13:35.543424,14.79508829,.0053279,98.1193,223.4385,275.3730,84.1404,0,U,41790,999,10034,.15509E-3,.1129E-4,0
GOKTURK 1A,2016-073A,2026-06-08T19:58:07.441248,14.62768979,.000146,98.1254,54.6369,77.8123,282.3242,0,U,41875,999,50760,.88634E-4,.405E-5,0
RESOURCESAT-2A,2016-074A,2026-06-08T20:03:57.526272,14.21613615,.0003339,98.7520,233.4086,98.9623,261.1932,0,U,41877,999,49311,.848E-4,.142E-5,0
CARTOSAT-2D,2017-008A,2026-06-08T20:38:05.851680,15.19265981,.0003566,97.4107,219.3209,270.5641,89.5185,0,U,41948,999,51631,.10397E-3,.2125E-4,0
SENTINEL-2B,2017-013A,2026-06-08T19:34:51.467808,14.30814864,.0001212,98.5685,234.7084,85.2490,274.8831,0,U,42063,999,48344,.80396E-4,.167E-5,0
CARTOSAT-2E,2017-036C,2026-06-08T19:28:35.697792,15.19256310,.0003086,97.4277,219.7517,357.8604,2.2617,0,U,42767,999,49687,.15088E-3,.3113E-4,0
FORMOSAT-5,2017-049A,2026-06-08T18:39:18.110016,14.50895920,.0012666,98.2253,235.2737,107.5008,252.7572,0,U,42920,999,46545,.55806E-4,.177E-5,0
SENTINEL-5P,2017-064A,2026-06-08T19:32:13.331616,14.19517633,.0000989,98.7923,102.0050,81.4640,278.6648,0,U,42969,999,44837,.47174E-4,.55E-6,0
SKYSAT-C11,2017-068A,2026-06-08T15:24:09.125856,15.57452806,.0001037,97.4342,308.1047,88.7468,271.3906,0,U,42987,999,48191,.40058E-3,.29354E-3,0
SKYSAT-C10,2017-068B,2026-06-08T19:34:14.815200,15.34496683,.0001241,97.4494,296.5829,90.2973,269.8412,0,U,42988,999,48107,.26726E-3,.8851E-4,0
SKYSAT-C9,2017-068C,2026-06-08T08:17:28.175136,15.41341963,.0008959,97.4416,296.9593,161.4468,198.7107,0,U,42989,999,48139,.27256E-3,.11298E-3,0
SKYSAT-C8,2017-068D,2026-06-08T08:14:53.968416,15.36801802,.000157,97.4511,295.8729,98.2580,261.8842,0,U,42990,999,48095,.25163E-3,.8968E-4,0
SKYSAT-C7,2017-068E,2026-06-08T15:54:06.446304,15.36757451,.0006997,97.4523,297.1852,131.6572,228.5272,0,U,42991,999,48106,.31865E-3,.11373E-3,0
SKYSAT-C6,2017-068F,2026-06-08T08:11:30.941376,15.34056714,.0003929,97.4557,296.8615,160.7220,199.4172,0,U,42992,999,48096,.26086E-3,.8518E-4,0
GAOFEN-1 02,2018-031A,2026-06-08T21:28:42.427200,14.76471152,.0004331,98.0524,222.4450,51.8177,308.3422,0,U,43259,999,44147,.13205E-3,.867E-5,0
GAOFEN-1 03,2018-031B,2026-06-08T20:57:17.256096,14.76457445,.0003826,98.0520,222.2824,95.4414,264.7232,0,U,43260,999,44146,.10911E-3,.708E-5,0
GAOFEN-1 04,2018-031D,2026-06-08T20:22:19.611840,14.76466349,.0002226,98.0526,222.4477,89.6751,270.4713,0,U,43262,999,44145,.6124E-4,.375E-5,0
SENTINEL-3B,2018-039A,2026-06-08T18:34:43.675104,14.26739508,.0000852,98.6249,227.4269,78.1510,281.9766,0,U,43437,999,42292,.64303E-4,.112E-5,0
GAOFEN-5 01,2018-043A,2026-06-08T18:32:31.901280,14.60600022,.0003019,98.4564,131.1824,98.5927,261.5614,0,U,43461,999,43046,.88109E-4,.379E-5,0
GAOFEN-6,2018-048A,2026-06-08T20:55:10.257600,14.76623595,.0011355,97.7757,222.8609,195.5462,164.5401,0,U,43484,999,43216,.1154E-3,.758E-5,0
GAOFEN-11 01,2018-063A,2026-06-08T20:57:02.530080,15.55046949,.0004118,97.1295,226.7765,26.6812,333.4654,0,U,43585,999,43905,.19588E-3,.13065E-3,0
ICESAT-2,2018-070A,2026-06-08T18:34:03.645120,15.28268537,.0005271,92.0066,288.7073,118.4278,241.7503,0,U,43613,999,43117,.38666E-3,.1065E-3,0
HYSIS,2018-096A,2026-06-08T19:41:30.730848,14.78679978,.0001687,97.9836,226.6339,110.8554,249.2837,0,U,43719,999,40618,.19883E-3,.1406E-4,0
KAZSTSAT,2018-099AB,2026-06-08T19:47:46.316832,14.99843041,.0007899,97.4263,192.1338,91.5031,268.7098,0,U,43783,999,41005,.10786E-3,.1281E-4,0
