SKYSAT-C4               
1 41771U 16058B   26159.80189564  .00017547  00000+0  33333-3 0  9995
2 41771  96.9184 181.9262 0000856 101.0393 259.0956 15.48326972544178
SKYSAT-C5               
1 41772U 16058C   26159.36522077  .00006800  00000+0  20672-3 0  9999
2 41772  97.0478 200.3996 0002041   4.8894 355.2369 15.34343128542397
SKYSAT-C2               
1 41773U 16058D   26159.49861009  .00011893  00000+0  28188-3 0  9993
2 41773  97.0173 181.9219 0005113  89.0925 271.0908 15.41872579543711
SKYSAT-C3               
1 41774U 16058E   26159.82793321  .00022331  00000+0  36980-3 0  9990
2 41774  96.9014 190.9992 0001912  82.8153 277.3319 15.52180465544814
ALSAT-1B                
1 41785U 16059C   26159.88067052  .00000658  00000+0  11166-3 0  9991
2 41785  97.7756 169.0030 0007730 252.0053 108.0313 14.72269634519354
PATHFINDER 1            
1 41787U 16059E   26159.75075176  .00000629  00000+0  11823-3 0  9993
2 41787  97.8166 159.4077 0027234 231.3658 128.5109 14.67654005518474
SCATSAT 1               
1 41790U 16059H   26159.75943916  .00001129  00000+0  15509-3 0  9994
2 41790  98.1193 223.4385 0053279 275.3730  84.1404 14.79508829100346
GOKTURK 1A              
1 41875U 16073A   26159.83203057  .00000405  00000+0  88634-4 0  9994
2 41875  98.1254  54.6369 0001460  77.8123 282.3242 14.62768979507608
RESOURCESAT-2A          
1 41877U 16074A   26159.83608248  .00000142  00000+0  84800-4 0  9997
2 41877  98.7520 233.4086 0003339  98.9623 261.1932 14.21613615493113
CARTOSAT-2D             
1 41948U 17008A   26159.85978995  .00002125  00000+0  10397-3 0  9997
2 41948  97.4107 219.3209 0003566 270.5641  89.5185 15.19265981516316
SENTINEL-2B             
1 42063U 17013A   26159.81587347  .00000167  00000+0  80396-4 0  9996
2 42063  98.5685 234.7084 0001212  85.2490 274.8831 14.30814864483445
CARTOSAT-2E             
1 42767U 17036C   26159.81152428  .00003113  00000+0  15088-3 0  9999
2 42767  97.4277 219.7517 0003086 357.8604   2.2617 15.19256310496871
FORMOSAT-5              
1 42920U 17049A   26159.77729294  .00000177  00000+0  55806-4 0  9990
2 42920  98.2253 235.2737 0012666 107.5008 252.7572 14.50895920465456
SENTINEL-5P             
1 42969U 17064A   26159.81404319  .00000055  00000+0  47174-4 0  9997
2 42969  98.7923 102.0050 0000989  81.4640 278.6648 14.19517633448374
SKYSAT-C11              
1 42987U 17068A   26159.64177229  .00029354  00000+0  40058-3 0  9995
2 42987  97.4342 308.1047 0001037  88.7468 271.3906 15.57452806481910
SKYSAT-C10              
1 42988U 17068B   26159.81544925  .00008851  00000+0  26726-3 0  9991
2 42988  97.4494 296.5829 0001241  90.2973 269.8412 15.34496683481070
SKYSAT-C9               
1 42989U 17068C   26159.34546500  .00011298  00000+0  27256-3 0  9999
2 42989  97.4416 296.9593 0008959 161.4468 198.7107 15.41341963481394
SKYSAT-C8               
1 42990U 17068D   26159.34368019  .00008968  00000+0  25163-3 0  9993
2 42990  97.4511 295.8729 0001570  98.2580 261.8842 15.36801802480951
SKYSAT-C7               
1 42991U 17068E   26159.66257461  .00011373  00000+0  31865-3 0  9997
2 42991  97.4523 297.1852 0006997 131.6572 228.5272 15.36757451481068
SKYSAT-C6               
1 42992U 17068F   26159.34133034  .00008518  00000+0  26086-3 0  9998
2 42992  97.4557 296.8615 0003928 160.7220 199.4172 15.34056714480968
GAOFEN-1 02             
1 43259U 18031A   26159.89493550  .00000867  00000+0  13205-3 0  9996
2 43259  98.0524 222.4450 0004331  51.8177 308.3422 14.76471152441472
GAOFEN-1 03             
1 43260U 18031B   26159.87311639  .00000708  00000+0  10911-3 0  9998
2 43260  98.0520 222.2824 0003826  95.4414 264.7232 14.76457445441461
GAOFEN-1 04             
1 43262U 18031D   26159.84883810  .00000375  00000+0  61240-4 0  9994
2 43262  98.0526 222.4477 0002226  89.6751 270.4713 14.76466349441457
SENTINEL-3B             
1 43437U 18039A   26159.77411661  .00000112  00000+0  64303-4 0  9991
2 43437  98.6249 227.4269 0000852  78.1510 281.9766 14.26739508422923
GAOFEN-5 01             
1 43461U 18043A   26159.77259145  .00000379  00000+0  88109-4 0  9995
2 43461  98.4564 131.1824 0003019  98.5927 261.5614 14.60600022430462
GAOFEN-6                
1 43484U 18048A   26159.87164650  .00000758  00000+0  11540-3 0  9997
2 43484  97.7757 222.8609 0011355 195.5462 164.5401 14.76623595432168
GAOFEN-11 01            
1 43585U 18063A   26159.87294595  .00013065  00000+0  19588-3 0  9993
2 43585  97.1295 226.7765 0004118  26.6812 333.4654 15.55046949439051
ICESAT-2                
1 43613U 18070A   26159.77365330  .00010650  00000+0  38666-3 0  9993
2 43613  92.0066 288.7073 0005271 118.4278 241.7503 15.28268537431178
HYSIS                   
1 43719U 18096A   26159.82049457  .00001406  00000+0  19883-3 0  9992
2 43719  97.9836 226.6339 0001687 110.8554 249.2837 14.78679978406185
KAZSTSAT                
1 43783U 18099AB  26159.82484163  .00001281  00000+0  10786-3 0  9997
2 43783  97.4263 192.1338 0007899  91.5031 268.7098 14.99843041410050
